{
  "type": "FeatureCollection",
  "features": [
    {
      "type": "Feature",
      "geometry": {
        "type": "LineString",
        "coordinates": [
          [
            -1.5731177,
            5.7582339
          ],
          [
            -1.5733097,
            5.7576743
          ],
          [
            -1.5736115,
            5.7569646
          ],
          [
            -1.5741054,
            5.7562412
          ],
          [
            -1.5746952,
            5.7552721
          ],
          [
            -1.5755046,
            5.7538663
          ],
          [
            -1.5770821,
            5.7528426
          ],
          [
            -1.5783566,
            5.7519671
          ],
          [
            -1.5788716,
            5.74972
          ],
          [
            -1.5797192,
            5.748738
          ],
          [
            -1.5806633,
            5.7486526
          ],
          [
            -1.5825194,
            5.7496293
          ],
          [
            -1.5833566,
            5.749416
          ],
          [
            -1.5853357,
            5.7480975
          ],
          [
            -1.5875781,
            5.746667
          ],
          [
            -1.5894985,
            5.7446761
          ],
          [
            -1.5906787,
            5.7432137
          ],
          [
            -1.5936023,
            5.738474
          ],
          [
            -1.5965796,
            5.7373691
          ],
          [
            -1.5974861,
            5.7363096
          ],
          [
            -1.5988246,
            5.733937
          ],
          [
            -1.5998679,
            5.7327895
          ],
          [
            -1.6011286,
            5.7310654
          ],
          [
            -1.6019869,
            5.7290905
          ],
          [
            -1.6015953,
            5.7274679
          ],
          [
            -1.5992403,
            5.7254983
          ],
          [
            -1.5966922,
            5.7240144
          ],
          [
            -1.5931946,
            5.722269
          ],
          [
            -1.5910113,
            5.7221676
          ],
          [
            -1.5895897,
            5.7227867
          ],
          [
            -1.5844131,
            5.7277241
          ],
          [
            -1.5826696,
            5.7285167
          ],
          [
            -1.5811729,
            5.72845
          ],
          [
            -1.5804139,
            5.7277401
          ],
          [
            -1.5798667,
            5.7265658
          ],
          [
            -1.5795521,
            5.725754
          ],
          [
            -1.5793571,
            5.7252154
          ],
          [
            -1.5793088,
            5.7243667
          ],
          [
            -1.5796763,
            5.7238836
          ],
          [
            -1.5817031,
            5.7223524
          ],
          [
            -1.5835464,
            5.721197
          ],
          [
            -1.5846875,
            5.7192647
          ],
          [
            -1.5849334,
            5.7169953
          ],
          [
            -1.5852124,
            5.7138888
          ],
          [
            -1.5857059,
            5.7121059
          ],
          [
            -1.5876639,
            5.7113426
          ],
          [
            -1.5895942,
            5.710991
          ],
          [
            -1.5912581,
            5.7115775
          ],
          [
            -1.5925831,
            5.7128425
          ],
          [
            -1.5946806,
            5.7140222
          ],
          [
            -1.5960699,
            5.7145026
          ],
          [
            -1.597352,
            5.7140115
          ],
          [
            -1.5987253,
            5.7132802
          ],
          [
            -1.5989935,
            5.7117963
          ],
          [
            -1.5988112,
            5.710211
          ],
          [
            -1.5994763,
            5.7074247
          ],
          [
            -1.5988755,
            5.7061756
          ],
          [
            -1.5980011,
            5.7053109
          ],
          [
            -1.5963864,
            5.7056098
          ],
          [
            -1.5957695,
            5.7054016
          ],
          [
            -1.5954799,
            5.7049586
          ],
          [
            -1.5956622,
            5.7043821
          ],
          [
            -1.5961236,
            5.7033786
          ],
          [
            -1.5947449,
            5.7012221
          ],
          [
            -1.5928164,
            5.7005308
          ],
          [
            -1.5919608,
            5.6994419
          ],
          [
            -1.5922371,
            5.6987747
          ],
          [
            -1.5929425,
            5.6977098
          ],
          [
            -1.5938652,
            5.6968023
          ],
          [
            -1.5943265,
            5.6952543
          ],
          [
            -1.5943962,
            5.6933647
          ],
          [
            -1.594305,
            5.6917633
          ],
          [
            -1.5936935,
            5.6907544
          ],
          [
            -1.5923256,
            5.6899964
          ],
          [
            -1.5906304,
            5.6897722
          ],
          [
            -1.5889514,
            5.6891423
          ],
          [
            -1.5868485,
            5.6881441
          ],
          [
            -1.5851319,
            5.6879947
          ],
          [
            -1.5840931,
            5.6876094
          ],
          [
            -1.5832436,
            5.6870232
          ],
          [
            -1.5824563,
            5.6864285
          ],
          [
            -1.5818542,
            5.6848399
          ],
          [
            -1.5812534,
            5.6806549
          ],
          [
            -1.5809315,
            5.677799
          ],
          [
            -1.5806902,
            5.6760374
          ],
          [
            -1.5802256,
            5.6746508
          ],
          [
            -1.5789842,
            5.673631
          ],
          [
            -1.5776301,
            5.6731113
          ],
          [
            -1.5762403,
            5.6720871
          ],
          [
            -1.57576,
            5.6711479
          ],
          [
            -1.5728377,
            5.6701659
          ],
          [
            -1.5702885,
            5.6690017
          ],
          [
            -1.5689474,
            5.6690284
          ],
          [
            -1.5670699,
            5.6703309
          ],
          [
            -1.5645946,
            5.6718391
          ],
          [
            -1.5623546,
            5.6740677
          ],
          [
            -1.561411,
            5.674473
          ],
          [
            -1.5596539,
            5.6746889
          ],
          [
            -1.5550804,
            5.6731495
          ],
          [
            -1.5541578,
            5.6725516
          ],
          [
            -1.5535118,
            5.6716692
          ],
          [
            -1.5526772,
            5.6693914
          ],
          [
            -1.5520978,
            5.6685373
          ],
          [
            -1.550982,
            5.6669572
          ],
          [
            -1.5507031,
            5.6656761
          ],
          [
            -1.5509176,
            5.6640319
          ],
          [
            -1.5506816,
            5.6627507
          ],
          [
            -1.5498362,
            5.660914
          ],
          [
            -1.5493512,
            5.660231
          ],
          [
            -1.548566,
            5.6600424
          ],
          [
            -1.5470553,
            5.6604232
          ],
          [
            -1.5456001,
            5.6607714
          ],
          [
            -1.5446091,
            5.6608289
          ],
          [
            -1.5439341,
            5.6604282
          ],
          [
            -1.5436241,
            5.6595991
          ],
          [
            -1.5424633,
            5.6531845
          ],
          [
            -1.5415621,
            5.6482092
          ],
          [
            -1.5411759,
            5.6468425
          ],
          [
            -1.540426,
            5.6460407
          ],
          [
            -1.5389023,
            5.6450269
          ],
          [
            -1.5390194,
            5.644152
          ],
          [
            -1.538676,
            5.6424864
          ],
          [
            -1.5389319,
            5.6414678
          ],
          [
            -1.540575,
            5.6401588
          ],
          [
            -1.5413475,
            5.6390698
          ],
          [
            -1.5418838,
            5.6378788
          ],
          [
            -1.5428925,
            5.6367209
          ],
          [
            -1.5431071,
            5.6350339
          ],
          [
            -1.5429257,
            5.6328241
          ],
          [
            -1.542067,
            5.6304609
          ],
          [
            -1.5397579,
            5.6289047
          ],
          [
            -1.5383153,
            5.6262546
          ],
          [
            -1.5386372,
            5.6223148
          ],
          [
            -1.5398173,
            5.6193145
          ],
          [
            -1.5409975,
            5.6181613
          ],
          [
            -1.5421318,
            5.6159668
          ],
          [
            -1.5440123,
            5.6153959
          ],
          [
            -1.5451841,
            5.6152918
          ],
          [
            -1.5467053,
            5.6159831
          ],
          [
            -1.5491876,
            5.6180317
          ],
          [
            -1.5506535,
            5.6189728
          ],
          [
            -1.5536941,
            5.6190274
          ],
          [
            -1.554945,
            5.6186418
          ],
          [
            -1.5562628,
            5.6172044
          ],
          [
            -1.5567367,
            5.6160152
          ],
          [
            -1.556844,
            5.6141039
          ],
          [
            -1.5567743,
            5.6113625
          ],
          [
            -1.5566428,
            5.6105564
          ],
          [
            -1.5564725,
            5.6101573
          ],
          [
            -1.5556437,
            5.6091843
          ],
          [
            -1.5556169,
            5.6085971
          ],
          [
            -1.5559321,
            5.6079751
          ],
          [
            -1.5563183,
            5.6063201
          ],
          [
            -1.5559321,
            5.6048679
          ],
          [
            -1.5552977,
            5.6039016
          ],
          [
            -1.5544193,
            5.6024655
          ],
          [
            -1.5531104,
            5.6015365
          ],
          [
            -1.5531747,
            5.5989419
          ],
          [
            -1.5543013,
            5.5979382
          ],
          [
            -1.5560715,
            5.5982585
          ],
          [
            -1.5570371,
            5.5986108
          ],
          [
            -1.5576594,
            5.5985041
          ],
          [
            -1.5586317,
            5.5966916
          ],
          [
            -1.5593438,
            5.5940515
          ],
          [
            -1.5587967,
            5.5925566
          ],
          [
            -1.5572195,
            5.5911151
          ],
          [
            -1.5566844,
            5.5909723
          ],
          [
            -1.5551596,
            5.5904531
          ],
          [
            -1.5549665,
            5.5896095
          ],
          [
            -1.5552883,
            5.5887553
          ],
          [
            -1.5594281,
            5.5871649
          ],
          [
            -1.5633301,
            5.5846234
          ],
          [
            -1.5644293,
            5.5825301
          ],
          [
            -1.5649014,
            5.5804158
          ],
          [
            -1.5655773,
            5.5792199
          ],
          [
            -1.5652876,
            5.5786967
          ],
          [
            -1.5643327,
            5.5776929
          ],
          [
            -1.563453,
            5.5769241
          ],
          [
            -1.5634208,
            5.5739877
          ],
          [
            -1.5632491,
            5.5713288
          ],
          [
            -1.5630667,
            5.5701542
          ],
          [
            -1.5630492,
            5.5691662
          ],
          [
            -1.5633819,
            5.5688114
          ],
          [
            -1.5640216,
            5.5684991
          ],
          [
            -1.5647095,
            5.5682722
          ],
          [
            -1.5658583,
            5.5675486
          ],
          [
            -1.5676241,
            5.5642933
          ],
          [
            -1.5678182,
            5.561988
          ],
          [
            -1.5676922,
            5.5592917
          ],
          [
            -1.5682635,
            5.5533038
          ],
          [
            -1.5690762,
            5.5523027
          ],
          [
            -1.5710771,
            5.5513096
          ],
          [
            -1.5738773,
            5.550482
          ],
          [
            -1.5812749,
            5.547807
          ],
          [
            -1.5828735,
            5.5481114
          ],
          [
            -1.5852059,
            5.5496574
          ],
          [
            -1.5880178,
            5.5507935
          ],
          [
            -1.5905792,
            5.5500453
          ],
          [
            -1.5928137,
            5.5466004
          ]
        ]
      },
      "properties": {
        "osm_id": 246414851,
        "name": "Pra River",
        "waterway": "river"
      }
    },
    {
      "type": "Feature",
      "geometry": {
        "type": "LineString",
        "coordinates": [
          [
            -1.5594803,
            5.2177885
          ],
          [
            -1.5609513,
            5.2149246
          ],
          [
            -1.5615147,
            5.2139807
          ],
          [
            -1.5639087,
            5.2131485
          ],
          [
            -1.5641068,
            5.2119442
          ],
          [
            -1.5661561,
            5.2102435
          ],
          [
            -1.5656593,
            5.2090994
          ],
          [
            -1.5659388,
            5.207677
          ],
          [
            -1.5679194,
            5.2060431
          ],
          [
            -1.5723351,
            5.2026985
          ],
          [
            -1.5735461,
            5.1996372
          ],
          [
            -1.5735461,
            5.1969778
          ],
          [
            -1.5714347,
            5.1920302
          ],
          [
            -1.5714347,
            5.1905459
          ],
          [
            -1.572242,
            5.1896182
          ],
          [
            -1.5746018,
            5.1898965
          ],
          [
            -1.5754402,
            5.1895254
          ],
          [
            -1.5756265,
            5.188505
          ],
          [
            -1.5744776,
            5.1873917
          ],
          [
            -1.574074,
            5.1855982
          ],
          [
            -1.5744466,
            5.1848251
          ],
          [
            -1.577831,
            5.1853508
          ],
          [
            -1.579632,
            5.1845777
          ],
          [
            -1.5810913,
            5.1821657
          ],
          [
            -1.582116,
            5.1813617
          ],
          [
            -1.5857799,
            5.1813308
          ],
          [
            -1.5878913,
            5.182846
          ],
          [
            -1.5891334,
            5.1872371
          ],
          [
            -1.5899717,
            5.1881648
          ],
          [
            -1.5917416,
            5.188474
          ],
          [
            -1.5952813,
            5.1870207
          ],
          [
            -1.5957781,
            5.1830625
          ],
          [
            -1.5963991,
            5.180434
          ],
          [
            -1.5977964,
            5.1793826
          ],
          [
            -1.5983553,
            5.1774963
          ],
          [
            -1.5994421,
            5.1772798
          ],
          [
            -1.6016466,
            5.1784549
          ],
          [
            -1.6035097,
            5.1780149
          ],
          [
            -1.6080928,
            5.1765173
          ],
          [
            -1.6137805,
            5.1734189
          ],
          [
            -1.6174812,
            5.1710971
          ],
          [
            -1.6204319,
            5.1711529
          ],
          [
            -1.6239805,
            5.1684289
          ],
          [
            -1.6270645,
            5.16596
          ],
          [
            -1.628512,
            5.1652807
          ],
          [
            -1.6302992,
            5.165109
          ],
          [
            -1.6347042,
            5.1655784
          ],
          [
            -1.6380006,
            5.1647805
          ],
          [
            -1.6417036,
            5.1629034
          ],
          [
            -1.6445871,
            5.1612622
          ],
          [
            -1.6469064,
            5.1592737
          ],
          [
            -1.6487163,
            5.1559348
          ],
          [
            -1.6499408,
            5.1546892
          ],
          [
            -1.6509503,
            5.1528885
          ],
          [
            -1.6520344,
            5.1498041
          ],
          [
            -1.6530082,
            5.1472205
          ],
          [
            -1.6525702,
            5.1446664
          ],
          [
            -1.6526645,
            5.1435169
          ],
          [
            -1.6523251,
            5.1423666
          ],
          [
            -1.6519091,
            5.1416811
          ],
          [
            -1.6501273,
            5.1396465
          ],
          [
            -1.6464773,
            5.1358607
          ],
          [
            -1.6447152,
            5.1333285
          ],
          [
            -1.64274,
            5.1326177
          ],
          [
            -1.6383883,
            5.1319985
          ],
          [
            -1.6343448,
            5.130728
          ],
          [
            -1.6290878,
            5.1292011
          ],
          [
            -1.6264278,
            5.128915
          ],
          [
            -1.6237818,
            5.1283078
          ],
          [
            -1.6205912,
            5.1266429
          ],
          [
            -1.6170531,
            5.1239435
          ],
          [
            -1.6172854,
            5.1207221
          ],
          [
            -1.6171347,
            5.1191473
          ],
          [
            -1.6148536,
            5.1115529
          ],
          [
            -1.6150723,
            5.1081292
          ],
          [
            -1.6164785,
            5.1057015
          ],
          [
            -1.6158848,
            5.0980448
          ],
          [
            -1.617416,
            5.0942164
          ],
          [
            -1.6166347,
            5.0817662
          ],
          [
            -1.6155703,
            5.0677672
          ],
          [
            -1.6154409,
            5.064154
          ],
          [
            -1.6122848,
            5.0594228
          ],
          [
            -1.6124411,
            5.0551272
          ],
          [
            -1.6130348,
            5.0523258
          ],
          [
            -1.6145044,
            5.0498327
          ],
          [
            -1.6168035,
            5.0481574
          ],
          [
            -1.6190888,
            5.0463993
          ],
          [
            -1.6218072,
            5.0451295
          ],
          [
            -1.6234794,
            5.0452061
          ],
          [
            -1.6248858,
            5.0447469
          ],
          [
            -1.6251753,
            5.0440053
          ],
          [
            -1.6250099,
            5.0430753
          ],
          [
            -1.6239876,
            5.0416803
          ],
          [
            -1.6228826,
            5.0404442
          ],
          [
            -1.6217126,
            5.038384
          ],
          [
            -1.6212281,
            5.0359883
          ],
          [
            -1.6209986,
            5.0332376
          ],
          [
            -1.6206765,
            5.0318665
          ],
          [
            -1.6200345,
            5.0308555
          ],
          [
            -1.6180904,
            5.0286835
          ],
          [
            -1.6173809,
            5.0280266
          ],
          [
            -1.6169741,
            5.0276499
          ],
          [
            -1.616522,
            5.0258571
          ]
        ]
      },
      "properties": {
        "osm_id": 246414873,
        "name": "Pra River",
        "waterway": "river"
      }
    },
    {
      "type": "Feature",
      "geometry": {
        "type": "LineString",
        "coordinates": [
          [
            -1.263001,
            5.890319
          ],
          [
            -1.2660236,
            5.8910808
          ],
          [
            -1.2682128,
            5.8926917
          ],
          [
            -1.270291,
            5.8943722
          ],
          [
            -1.2706375,
            5.8949648
          ],
          [
            -1.2708521,
            5.8956532
          ],
          [
            -1.2709862,
            5.8969285
          ],
          [
            -1.2712222,
            5.8976809
          ],
          [
            -1.2719572,
            5.8998846
          ],
          [
            -1.2719786,
            5.9004022
          ],
          [
            -1.2720471,
            5.9009534
          ],
          [
            -1.2729871,
            5.9019817
          ],
          [
            -1.2739098,
            5.902686
          ],
          [
            -1.2747797,
            5.902869
          ],
          [
            -1.2762058,
            5.9018696
          ],
          [
            -1.2776208,
            5.9008722
          ],
          [
            -1.278888,
            5.9004396
          ],
          [
            -1.2814039,
            5.9002262
          ],
          [
            -1.2822354,
            5.89997
          ],
          [
            -1.2828309,
            5.8995761
          ],
          [
            -1.2850571,
            5.8964109
          ],
          [
            -1.2873263,
            5.8944392
          ],
          [
            -1.28775,
            5.8936468
          ],
          [
            -1.2885877,
            5.8909111
          ],
          [
            -1.2895203,
            5.8896875
          ],
          [
            -1.2922353,
            5.887604
          ],
          [
            -1.2948176,
            5.8865178
          ],
          [
            -1.2974522,
            5.8855428
          ],
          [
            -1.2984574,
            5.8855893
          ],
          [
            -1.2994015,
            5.8859308
          ],
          [
            -1.3021822,
            5.8872844
          ],
          [
            -1.3055314,
            5.8874114
          ],
          [
            -1.306504,
            5.8879052
          ],
          [
            -1.3072718,
            5.8885156
          ],
          [
            -1.3084012,
            5.8894418
          ],
          [
            -1.3087142,
            5.8902317
          ],
          [
            -1.3087142,
            5.8908614
          ],
          [
            -1.3084425,
            5.8912013
          ],
          [
            -1.3077643,
            5.8914727
          ],
          [
            -1.3066702,
            5.8931918
          ],
          [
            -1.3054204,
            5.8970299
          ],
          [
            -1.3042939,
            5.9005196
          ],
          [
            -1.3042648,
            5.9010491
          ],
          [
            -1.3044602,
            5.9013467
          ],
          [
            -1.3047659,
            5.9014992
          ],
          [
            -1.3071048,
            5.9024833
          ],
          [
            -1.3101008,
            5.904345
          ],
          [
            -1.3112569,
            5.90529
          ],
          [
            -1.3121543,
            5.9063447
          ],
          [
            -1.3124049,
            5.9069548
          ],
          [
            -1.3124478,
            5.9074884
          ],
          [
            -1.3122938,
            5.9085429
          ],
          [
            -1.3115932,
            5.910965
          ],
          [
            -1.3117075,
            5.9122374
          ],
          [
            -1.3119328,
            5.913646
          ],
          [
            -1.311911,
            5.9162529
          ],
          [
            -1.3113369,
            5.9176807
          ],
          [
            -1.3097119,
            5.9194301
          ],
          [
            -1.307862,
            5.9208935
          ],
          [
            -1.3069374,
            5.9228706
          ],
          [
            -1.30695,
            5.9244347
          ],
          [
            -1.3080067,
            5.926099
          ],
          [
            -1.3086122,
            5.9262652
          ],
          [
            -1.3090634,
            5.9262366
          ],
          [
            -1.3108121,
            5.9248915
          ],
          [
            -1.3133722,
            5.923978
          ],
          [
            -1.3167374,
            5.9245036
          ],
          [
            -1.3172436,
            5.9242696
          ],
          [
            -1.3176245,
            5.9239442
          ],
          [
            -1.3178316,
            5.9235578
          ],
          [
            -1.317876,
            5.9218053
          ],
          [
            -1.3176674,
            5.9194914
          ],
          [
            -1.3176513,
            5.9188565
          ],
          [
            -1.3176181,
            5.9181719
          ],
          [
            -1.3176754,
            5.9180188
          ],
          [
            -1.3177747,
            5.917792
          ],
          [
            -1.3179718,
            5.9174065
          ],
          [
            -1.3182159,
            5.9171183
          ],
          [
            -1.3184957,
            5.9168042
          ],
          [
            -1.3196951,
            5.9158924
          ],
          [
            -1.3208106,
            5.9151741
          ],
          [
            -1.3217443,
            5.9146492
          ],
          [
            -1.3226093,
            5.914273
          ],
          [
            -1.3231981,
            5.9140622
          ],
          [
            -1.3238257,
            5.9139182
          ],
          [
            -1.3250578,
            5.9137158
          ],
          [
            -1.3260734,
            5.9136407
          ],
          [
            -1.3264918,
            5.913662
          ],
          [
            -1.3267976,
            5.9136941
          ],
          [
            -1.3272268,
            5.9137527
          ],
          [
            -1.32772,
            5.9138736
          ],
          [
            -1.3282889,
            5.9140782
          ],
          [
            -1.3288951,
            5.9143664
          ],
          [
            -1.3295603,
            5.9147132
          ],
          [
            -1.3314326,
            5.915718
          ],
          [
            -1.3339591,
            5.9165007
          ],
          [
            -1.3344848,
            5.9166448
          ],
          [
            -1.3351233,
            5.9167805
          ],
          [
            -1.3352358,
            5.9167995
          ],
          [
            -1.3353914,
            5.9168102
          ],
          [
            -1.335665,
            5.9167862
          ],
          [
            -1.3358527,
            5.9167515
          ],
          [
            -1.3361612,
            5.9166875
          ],
          [
            -1.3365018,
            5.9165621
          ],
          [
            -1.3367653,
            5.916395
          ],
          [
            -1.3373011,
            5.9158497
          ],
          [
            -1.3375533,
            5.9154976
          ],
          [
            -1.3377151,
            5.9151812
          ],
          [
            -1.338797,
            5.9126097
          ],
          [
            -1.3404324,
            5.9118839
          ],
          [
            -1.341927,
            5.9109226
          ],
          [
            -1.3433888,
            5.910739
          ],
          [
            -1.3440642,
            5.9118427
          ],
          [
            -1.3445107,
            5.9138416
          ],
          [
            -1.3440985,
            5.9147149
          ],
          [
            -1.3428839,
            5.9147617
          ],
          [
            -1.3410048,
            5.9155691
          ],
          [
            -1.3397028,
            5.9179029
          ],
          [
            -1.3360356,
            5.9235463
          ],
          [
            -1.335501,
            5.925417
          ],
          [
            -1.3357903,
            5.9265745
          ],
          [
            -1.3367087,
            5.927319
          ],
          [
            -1.3384129,
            5.9268147
          ],
          [
            -1.341615,
            5.9251104
          ],
          [
            -1.3421622,
            5.9239968
          ],
          [
            -1.3417511,
            5.9228213
          ],
          [
            -1.3412187,
            5.9218007
          ],
          [
            -1.341703,
            5.9209436
          ],
          [
            -1.3423572,
            5.9209999
          ],
          [
            -1.3433385,
            5.9219884
          ],
          [
            -1.3442322,
            5.9219463
          ],
          [
            -1.3452697,
            5.920174
          ],
          [
            -1.3460684,
            5.9190416
          ],
          [
            -1.347339,
            5.9189727
          ],
          [
            -1.3483077,
            5.9200802
          ],
          [
            -1.3486348,
            5.9214378
          ],
          [
            -1.3474082,
            5.9237465
          ],
          [
            -1.3472698,
            5.9257298
          ],
          [
            -1.3485279,
            5.9282637
          ],
          [
            -1.3485467,
            5.9296902
          ],
          [
            -1.3480121,
            5.9313482
          ],
          [
            -1.3482499,
            5.931713
          ],
          [
            -1.3486725,
            5.9318362
          ],
          [
            -1.3510476,
            5.9310707
          ],
          [
            -1.3519031,
            5.9312274
          ],
          [
            -1.3527024,
            5.931649
          ],
          [
            -1.3528878,
            5.9318722
          ],
          [
            -1.3534216,
            5.9334316
          ],
          [
            -1.35434,
            5.9340635
          ],
          [
            -1.3567302,
            5.9334191
          ],
          [
            -1.3597998,
            5.933588
          ],
          [
            -1.3624983,
            5.9331813
          ],
          [
            -1.3644164,
            5.9336656
          ],
          [
            -1.3677978,
            5.9328166
          ],
          [
            -1.3683607,
            5.9326746
          ],
          [
            -1.3687795,
            5.9327374
          ],
          [
            -1.3709182,
            5.9333503
          ],
          [
            -1.3713759,
            5.933303
          ],
          [
            -1.3734196,
            5.9328201
          ],
          [
            -1.3737524,
            5.9328815
          ],
          [
            -1.3740635,
            5.9330789
          ],
          [
            -1.3761449,
            5.9347703
          ],
          [
            -1.3765258,
            5.9348184
          ],
          [
            -1.376746,
            5.9346589
          ]
        ]
      },
      "properties": {
        "osm_id": 246414877,
        "name": "Pra River",
        "waterway": "river"
      }
    },
    {
      "type": "Feature",
      "geometry": {
        "type": "LineString",
        "coordinates": [
          [
            -1.376746,
            5.9346589
          ],
          [
            -1.3775846,
            5.9325557
          ],
          [
            -1.3784143,
            5.930969
          ],
          [
            -1.3784033,
            5.9306352
          ],
          [
            -1.3781098,
            5.9302967
          ],
          [
            -1.3763149,
            5.9300046
          ],
          [
            -1.3754636,
            5.9295894
          ],
          [
            -1.3748205,
            5.928934
          ],
          [
            -1.3744283,
            5.9277966
          ],
          [
            -1.374248,
            5.9266707
          ],
          [
            -1.3740098,
            5.9232327
          ],
          [
            -1.3742942,
            5.9221567
          ],
          [
            -1.3749783,
            5.9211495
          ],
          [
            -1.3758069,
            5.9211375
          ],
          [
            -1.3764378,
            5.9208453
          ],
          [
            -1.3780868,
            5.9189605
          ],
          [
            -1.3790417,
            5.9173705
          ],
          [
            -1.3795459,
            5.9166448
          ],
          [
            -1.380075,
            5.9161871
          ],
          [
            -1.381225,
            5.9162606
          ],
          [
            -1.3822872,
            5.9161005
          ],
          [
            -1.3827914,
            5.9161752
          ],
          [
            -1.3833247,
            5.9164248
          ],
          [
            -1.3849081,
            5.9182543
          ],
          [
            -1.3866694,
            5.9191125
          ],
          [
            -1.3906191,
            5.919263
          ],
          [
            -1.3924961,
            5.9189002
          ],
          [
            -1.3943375,
            5.9195904
          ],
          [
            -1.394797,
            5.9194514
          ],
          [
            -1.3951114,
            5.919201
          ],
          [
            -1.3962585,
            5.9170839
          ],
          [
            -1.3968355,
            5.9167568
          ],
          [
            -1.3980114,
            5.9165731
          ],
          [
            -1.3999061,
            5.9169801
          ],
          [
            -1.400769,
            5.9175818
          ],
          [
            -1.4007676,
            5.9185123
          ],
          [
            -1.4005822,
            5.9192984
          ],
          [
            -1.4007247,
            5.9197075
          ],
          [
            -1.4010092,
            5.9200593
          ],
          [
            -1.4038146,
            5.9215858
          ],
          [
            -1.4046297,
            5.9219263
          ],
          [
            -1.4058209,
            5.9218525
          ],
          [
            -1.4094385,
            5.9211856
          ],
          [
            -1.413331,
            5.9220446
          ],
          [
            -1.4171656,
            5.9217629
          ],
          [
            -1.4180517,
            5.9216711
          ],
          [
            -1.4184487,
            5.9215111
          ],
          [
            -1.4185453,
            5.9212336
          ],
          [
            -1.4183223,
            5.9206569
          ],
          [
            -1.4172149,
            5.9179574
          ],
          [
            -1.4165712,
            5.9173384
          ],
          [
            -1.4160776,
            5.9166341
          ],
          [
            -1.4157442,
            5.9152455
          ],
          [
            -1.4160991,
            5.9140409
          ],
          [
            -1.4167535,
            5.9134006
          ],
          [
            -1.4179874,
            5.912248
          ],
          [
            -1.4197336,
            5.9080562
          ],
          [
            -1.4201224,
            5.906069
          ],
          [
            -1.4202082,
            5.9043722
          ],
          [
            -1.420691,
            5.9034544
          ],
          [
            -1.4212407,
            5.9031791
          ],
          [
            -1.4220858,
            5.9032303
          ],
          [
            -1.4230514,
            5.9037746
          ],
          [
            -1.424883,
            5.9048793
          ],
          [
            -1.4257658,
            5.905877
          ],
          [
            -1.4264846,
            5.9069121
          ],
          [
            -1.4270961,
            5.9084169
          ],
          [
            -1.4280952,
            5.9096946
          ],
          [
            -1.4288235,
            5.9097935
          ],
          [
            -1.4291775,
            5.9095374
          ],
          [
            -1.4292741,
            5.9090145
          ],
          [
            -1.4304006,
            5.9071042
          ],
          [
            -1.4319348,
            5.9059623
          ],
          [
            -1.4342737,
            5.9046497
          ],
          [
            -1.4357221,
            5.9028248
          ],
          [
            -1.4363551,
            5.9015335
          ],
          [
            -1.4375448,
            5.901089
          ],
          [
            -1.438694,
            5.9012774
          ],
          [
            -1.4429641,
            5.9028355
          ],
          [
            -1.4490581,
            5.9057596
          ],
          [
            -1.4508391,
            5.9062078
          ],
          [
            -1.4520407,
            5.9055888
          ],
          [
            -1.4525557,
            5.9047137
          ],
          [
            -1.4528775,
            5.9008718
          ],
          [
            -1.4539504,
            5.896539
          ],
          [
            -1.454165,
            5.8940204
          ],
          [
            -1.4547765,
            5.8936362
          ],
          [
            -1.456182,
            5.8935081
          ],
          [
            -1.4594865,
            5.8946393
          ],
          [
            -1.4615464,
            5.8958346
          ],
          [
            -1.4629197,
            5.8975635
          ],
          [
            -1.4633703,
            5.8995058
          ],
          [
            -1.4629841,
            5.9015762
          ],
          [
            -1.4621902,
            5.9032197
          ],
          [
            -1.4620614,
            5.9041161
          ],
          [
            -1.4631987,
            5.9050766
          ],
          [
            -1.4646583,
            5.9053825
          ],
          [
            -1.4660955,
            5.9045003
          ],
          [
            -1.4670181,
            5.9037106
          ],
          [
            -1.4674557,
            5.9024072
          ],
          [
            -1.4667607,
            5.9009572
          ],
          [
            -1.46544,
            5.8989167
          ],
          [
            -1.465441,
            5.8957813
          ],
          [
            -1.4651406,
            5.8942978
          ],
          [
            -1.4632201,
            5.8915444
          ],
          [
            -1.4621151,
            5.889442
          ],
          [
            -1.4600283,
            5.8879319
          ],
          [
            -1.4594436,
            5.887505
          ],
          [
            -1.4591056,
            5.8871102
          ],
          [
            -1.458875,
            5.8857921
          ],
          [
            -1.4589822,
            5.8844794
          ],
          [
            -1.459524,
            5.8824036
          ],
          [
            -1.4607525,
            5.879266
          ],
          [
            -1.4611817,
            5.8778732
          ],
          [
            -1.4610636,
            5.8764644
          ],
          [
            -1.460377,
            5.8749383
          ],
          [
            -1.4607203,
            5.8721101
          ],
          [
            -1.4612246,
            5.8702744
          ],
          [
            -1.4609993,
            5.8678624
          ],
          [
            -1.4611602,
            5.8659093
          ],
          [
            -1.4614821,
            5.8635933
          ],
          [
            -1.4614713,
            5.8621205
          ],
          [
            -1.4618254,
            5.8616829
          ],
          [
            -1.4623618,
            5.8615868
          ],
          [
            -1.4642608,
            5.8616189
          ],
          [
            -1.4653285,
            5.8619304
          ],
          [
            -1.4662349,
            5.8621845
          ],
          [
            -1.4670571,
            5.8621984
          ],
          [
            -1.4684236,
            5.8619604
          ],
          [
            -1.4697774,
            5.861532
          ],
          [
            -1.4703012,
            5.8610532
          ],
          [
            -1.4708591,
            5.8599219
          ],
          [
            -1.471771,
            5.8582676
          ],
          [
            -1.4726722,
            5.857275
          ],
          [
            -1.4743888,
            5.8562718
          ],
          [
            -1.4753942,
            5.855195
          ],
          [
            -1.4758694,
            5.8550444
          ],
          [
            -1.4765534,
            5.8552382
          ],
          [
            -1.477918,
            5.8563024
          ],
          [
            -1.4784014,
            5.8569549
          ],
          [
            -1.4782947,
            5.8576034
          ],
          [
            -1.4779616,
            5.8585985
          ],
          [
            -1.4777203,
            5.8595383
          ],
          [
            -1.4779508,
            5.86132
          ],
          [
            -1.4784573,
            5.8631489
          ],
          [
            -1.4792597,
            5.8635293
          ],
          [
            -1.4806183,
            5.8642047
          ],
          [
            -1.4819527,
            5.8654824
          ],
          [
            -1.4829178,
            5.8669329
          ],
          [
            -1.4851606,
            5.867809
          ],
          [
            -1.4867485,
            5.8687589
          ],
          [
            -1.4877601,
            5.8690973
          ],
          [
            -1.4884222,
            5.8686308
          ],
          [
            -1.4888406,
            5.8679371
          ],
          [
            -1.489023,
            5.8673394
          ],
          [
            -1.4887548,
            5.8667418
          ],
          [
            -1.4876497,
            5.8667524
          ],
          [
            -1.4866948,
            5.8664536
          ],
          [
            -1.4862764,
            5.86592
          ],
          [
            -1.4861155,
            5.8651515
          ],
          [
            -1.4867592,
            5.8637107
          ],
          [
            -1.4876819,
            5.8625047
          ],
          [
            -1.4898384,
            5.862462
          ],
          [
            -1.4916022,
            5.8629977
          ],
          [
            -1.4930727,
            5.8642217
          ],
          [
            -1.4937858,
            5.8659049
          ],
          [
            -1.4945591,
            5.8675987
          ],
          [
            -1.4953959,
            5.8681185
          ],
          [
            -1.4962805,
            5.8683617
          ],
          [
            -1.4972413,
            5.86846
          ],
          [
            -1.4981447,
            5.8682792
          ],
          [
            -1.4995694,
            5.8679904
          ],
          [
            -1.5009749,
            5.8679798
          ],
          [
            -1.5014041,
            5.8682252
          ],
          [
            -1.5016186,
            5.8684921
          ],
          [
            -1.5015757,
            5.8693245
          ],
          [
            -1.5005458,
            5.8708294
          ],
          [
            -1.4990544,
            5.8735509
          ],
          [
            -1.4991832,
            5.874458
          ],
          [
            -1.4994943,
            5.8752798
          ],
          [
            -1.5002132,
            5.8763577
          ],
          [
            -1.5009642,
            5.8768913
          ],
          [
            -1.5013504,
            5.8768273
          ],
          [
            -1.501801,
            5.8759628
          ],
          [
            -1.5024448,
            5.8753759
          ],
          [
            -1.504333,
            5.8751944
          ],
          [
            -1.5063071,
            5.8753225
          ],
          [
            -1.5089357,
            5.8765285
          ],
          [
            -1.5103948,
            5.8762937
          ],
          [
            -1.5121329,
            5.8754826
          ],
          [
            -1.516065,
            5.8724623
          ],
          [
            -1.5163064,
            5.8723875
          ],
          [
            -1.5166444,
            5.8723822
          ],
          [
            -1.5189189,
            5.8730492
          ],
          [
            -1.5223975,
            5.8753045
          ]
        ]
      },
      "properties": {
        "osm_id": 246414878,
        "name": "Pra River",
        "waterway": "river"
      }
    },
    {
      "type": "Feature",
      "geometry": {
        "type": "LineString",
        "coordinates": [
          [
            -1.5928137,
            5.5466004
          ],
          [
            -1.5931684,
            5.5433671
          ],
          [
            -1.5943656,
            5.5399864
          ],
          [
            -1.5949224,
            5.5356357
          ],
          [
            -1.5935582,
            5.5311742
          ],
          [
            -1.5939375,
            5.5292899
          ],
          [
            -1.5959995,
            5.5291778
          ],
          [
            -1.6015764,
            5.5313405
          ],
          [
            -1.607423,
            5.5315622
          ],
          [
            -1.6094554,
            5.5304537
          ],
          [
            -1.6128519,
            5.5234427
          ],
          [
            -1.6163042,
            5.5206161
          ],
          [
            -1.616503,
            5.5195615
          ],
          [
            -1.6163957,
            5.5179703
          ],
          [
            -1.6159344,
            5.5166675
          ],
          [
            -1.6156391,
            5.5157301
          ]
        ]
      },
      "properties": {
        "osm_id": 964945290,
        "name": "Pra River",
        "waterway": "river"
      }
    },
    {
      "type": "Feature",
      "geometry": {
        "type": "LineString",
        "coordinates": [
          [
            -1.6156391,
            5.5157301
          ],
          [
            -1.6158378,
            5.5124492
          ],
          [
            -1.616694,
            5.5099193
          ],
          [
            -1.6176832,
            5.5083697
          ],
          [
            -1.6198679,
            5.5064553
          ],
          [
            -1.6202855,
            5.4980306
          ],
          [
            -1.6182411,
            5.4949991
          ],
          [
            -1.6164601,
            5.4935574
          ],
          [
            -1.6153872,
            5.4919448
          ],
          [
            -1.6170559,
            5.4897721
          ],
          [
            -1.6175223,
            5.4888156
          ],
          [
            -1.6177368,
            5.4868826
          ],
          [
            -1.6152463,
            5.4830101
          ],
          [
            -1.6130269,
            5.4780398
          ],
          [
            -1.6126728,
            5.4765873
          ],
          [
            -1.6129633,
            5.4655226
          ],
          [
            -1.6118682,
            5.4630985
          ],
          [
            -1.6097616,
            5.46034
          ],
          [
            -1.6070509,
            5.4580575
          ],
          [
            -1.6046262,
            5.4570001
          ],
          [
            -1.6030276,
            5.4559214
          ],
          [
            -1.6024697,
            5.4547039
          ],
          [
            -1.6018548,
            5.4525521
          ],
          [
            -1.6021371,
            5.4508697
          ],
          [
            -1.602577,
            5.4499084
          ],
          [
            -1.6086201,
            5.4466211
          ],
          [
            -1.6158588,
            5.4447087
          ],
          [
            -1.6190843,
            5.4427376
          ],
          [
            -1.6232193,
            5.4397513
          ],
          [
            -1.624893,
            5.436953
          ],
          [
            -1.6266227,
            5.4340302
          ],
          [
            -1.6277166,
            5.4317294
          ],
          [
            -1.6273606,
            5.4284833
          ],
          [
            -1.628619,
            5.4244859
          ],
          [
            -1.6291141,
            5.4225849
          ]
        ]
      },
      "properties": {
        "osm_id": 964945291,
        "name": "Pra River",
        "waterway": "river"
      }
    },
    {
      "type": "Feature",
      "geometry": {
        "type": "LineString",
        "coordinates": [
          [
            -1.6291141,
            5.4225849
          ],
          [
            -1.6297484,
            5.4208774
          ],
          [
            -1.6306616,
            5.4172636
          ],
          [
            -1.6308101,
            5.4138984
          ],
          [
            -1.6330237,
            5.4118582
          ],
          [
            -1.6331535,
            5.4096582
          ],
          [
            -1.6325493,
            5.407187
          ],
          [
            -1.6308026,
            5.4052389
          ],
          [
            -1.6309387,
            5.4042749
          ],
          [
            -1.6308957,
            5.4032923
          ],
          [
            -1.6323602,
            5.4011133
          ],
          [
            -1.6332507,
            5.3996179
          ],
          [
            -1.6338945,
            5.3966325
          ],
          [
            -1.6346669,
            5.3956872
          ],
          [
            -1.6359061,
            5.3946779
          ],
          [
            -1.6362655,
            5.3938234
          ],
          [
            -1.6363084,
            5.3914307
          ],
          [
            -1.6361904,
            5.3891663
          ],
          [
            -1.6357636,
            5.3863221
          ],
          [
            -1.6343129,
            5.3825064
          ],
          [
            -1.6340393,
            5.3810537
          ],
          [
            -1.6329033,
            5.3775572
          ],
          [
            -1.6317146,
            5.3764847
          ],
          [
            -1.6302896,
            5.3759746
          ],
          [
            -1.6298573,
            5.3754492
          ],
          [
            -1.6306002,
            5.3729713
          ],
          [
            -1.6299316,
            5.3690511
          ],
          [
            -1.6274051,
            5.3665362
          ],
          [
            -1.6263655,
            5.3650569
          ],
          [
            -1.6241739,
            5.3646131
          ],
          [
            -1.6226509,
            5.3632447
          ],
          [
            -1.6229852,
            5.3609517
          ],
          [
            -1.6223537,
            5.3564396
          ],
          [
            -1.6210536,
            5.3503002
          ],
          [
            -1.6215688,
            5.34637
          ],
          [
            -1.619668,
            5.3442172
          ],
          [
            -1.6175437,
            5.3427751
          ],
          [
            -1.6162455,
            5.3428606
          ],
          [
            -1.6155481,
            5.342882
          ],
          [
            -1.6152907,
            5.3425188
          ],
          [
            -1.6151941,
            5.3414719
          ],
          [
            -1.6150332,
            5.3397948
          ],
          [
            -1.6152585,
            5.3377011
          ],
          [
            -1.614883,
            5.3360774
          ],
          [
            -1.6140783,
            5.3346993
          ],
          [
            -1.6126621,
            5.3336418
          ],
          [
            -1.610806,
            5.3330649
          ],
          [
            -1.6085529,
            5.3312062
          ],
          [
            -1.6070724,
            5.3305011
          ],
          [
            -1.6061175,
            5.3302768
          ],
          [
            -1.6049373,
            5.3289736
          ],
          [
            -1.6039288,
            5.3255231
          ],
          [
            -1.6054383,
            5.3246206
          ],
          [
            -1.6078341,
            5.3214637
          ],
          [
            -1.6078556,
            5.3195302
          ],
          [
            -1.6080594,
            5.3175325
          ],
          [
            -1.6078663,
            5.3159515
          ],
          [
            -1.6068471,
            5.3143705
          ],
          [
            -1.6044223,
            5.3139538
          ],
          [
            -1.6004098,
            5.3139325
          ],
          [
            -1.5986931,
            5.3134624
          ],
          [
            -1.5977383,
            5.3122125
          ],
          [
            -1.5972984,
            5.3106422
          ],
          [
            -1.5973413,
            5.3074694
          ],
          [
            -1.5978241,
            5.3055144
          ],
          [
            -1.5991223,
            5.3033351
          ],
          [
            -1.5995085,
            5.3015938
          ],
          [
            -1.5993808,
            5.2996031
          ],
          [
            -1.5995366,
            5.2958673
          ],
          [
            -1.5977612,
            5.2921956
          ],
          [
            -1.5942467,
            5.2852235
          ],
          [
            -1.5864464,
            5.2800454
          ],
          [
            -1.5911944,
            5.2730662
          ],
          [
            -1.5929655,
            5.2702435
          ],
          [
            -1.592904,
            5.2681063
          ],
          [
            -1.5918125,
            5.2666528
          ],
          [
            -1.5908098,
            5.2643868
          ],
          [
            -1.591937,
            5.2633095
          ],
          [
            -1.5960682,
            5.2631297
          ],
          [
            -1.5962942,
            5.2591038
          ],
          [
            -1.5980165,
            5.2570267
          ],
          [
            -1.6001251,
            5.2555052
          ],
          [
            -1.6020469,
            5.2484131
          ],
          [
            -1.5965076,
            5.2435724
          ],
          [
            -1.5992207,
            5.2343412
          ],
          [
            -1.597525,
            5.2298382
          ],
          [
            -1.5948439,
            5.2285508
          ],
          [
            -1.5909112,
            5.2293282
          ],
          [
            -1.5822636,
            5.2323149
          ],
          [
            -1.577371,
            5.2308437
          ],
          [
            -1.5739129,
            5.2288817
          ],
          [
            -1.5705963,
            5.2301879
          ],
          [
            -1.5692301,
            5.2296932
          ],
          [
            -1.5674602,
            5.2229214
          ],
          [
            -1.5604118,
            5.2202622
          ],
          [
            -1.5594803,
            5.2177885
          ]
        ]
      },
      "properties": {
        "osm_id": 964945293,
        "name": "Pra River",
        "waterway": "river"
      }
    },
    {
      "type": "Feature",
      "geometry": {
        "type": "LineString",
        "coordinates": [
          [
            -1.5778435,
            5.8024608
          ],
          [
            -1.5786871,
            5.8002158
          ],
          [
            -1.5795925,
            5.7982437
          ],
          [
            -1.5796611,
            5.7957803
          ],
          [
            -1.5793113,
            5.7940811
          ],
          [
            -1.578111,
            5.7925321
          ],
          [
            -1.5773016,
            5.791215
          ],
          [
            -1.5770478,
            5.7883831
          ],
          [
            -1.5771919,
            5.7864383
          ],
          [
            -1.5780493,
            5.7849779
          ],
          [
            -1.5787489,
            5.7840567
          ],
          [
            -1.5787214,
            5.7819412
          ],
          [
            -1.5788474,
            5.780761
          ],
          [
            -1.5788175,
            5.7799145
          ],
          [
            -1.5784265,
            5.7788499
          ],
          [
            -1.5773085,
            5.7778604
          ],
          [
            -1.5766845,
            5.7763914
          ],
          [
            -1.576115,
            5.7752263
          ],
          [
            -1.5741465,
            5.7739502
          ],
          [
            -1.5725346,
            5.7728105
          ],
          [
            -1.5717321,
            5.7722919
          ],
          [
            -1.5714989,
            5.7716572
          ],
          [
            -1.5720339,
            5.769453
          ],
          [
            -1.5732548,
            5.7670509
          ],
          [
            -1.5734812,
            5.7652834
          ],
          [
            -1.574414,
            5.7642598
          ],
          [
            -1.5747227,
            5.7631679
          ],
          [
            -1.5738887,
            5.7617857
          ],
          [
            -1.5734743,
            5.760172
          ],
          [
            -1.5731863,
            5.7592575
          ],
          [
            -1.5731177,
            5.7582339
          ]
        ]
      },
      "properties": {
        "osm_id": 964945297,
        "name": "Pra River",
        "waterway": "river"
      }
    },
    {
      "type": "Feature",
      "geometry": {
        "type": "LineString",
        "coordinates": [
          [
            -1.5223975,
            5.8753045
          ],
          [
            -1.5239637,
            5.8738483
          ],
          [
            -1.5258924,
            5.8720379
          ],
          [
            -1.5268952,
            5.8714833
          ],
          [
            -1.5281879,
            5.8723099
          ],
          [
            -1.530196,
            5.8721033
          ],
          [
            -1.5344638,
            5.8733935
          ],
          [
            -1.5358038,
            5.8759816
          ],
          [
            -1.5370978,
            5.8758001
          ],
          [
            -1.5381134,
            5.8742387
          ],
          [
            -1.5394851,
            5.8720379
          ],
          [
            -1.5403447,
            5.8699367
          ],
          [
            -1.5376979,
            5.8679242
          ],
          [
            -1.5361187,
            5.8680941
          ],
          [
            -1.5365731,
            5.8661303
          ],
          [
            -1.5370258,
            5.8648612
          ],
          [
            -1.5386308,
            5.8627051
          ],
          [
            -1.5383015,
            5.8608356
          ],
          [
            -1.5383015,
            5.85943
          ],
          [
            -1.538768,
            5.8585976
          ],
          [
            -1.5397831,
            5.8569055
          ],
          [
            -1.5396253,
            5.8528116
          ],
          [
            -1.5387268,
            5.8520951
          ],
          [
            -1.5388503,
            5.851638
          ],
          [
            -1.54003,
            5.8502597
          ],
          [
            -1.5402358,
            5.8487449
          ],
          [
            -1.5405787,
            5.8479944
          ],
          [
            -1.5411823,
            5.8478988
          ],
          [
            -1.5424444,
            5.8464932
          ],
          [
            -1.5431303,
            5.8453333
          ],
          [
            -1.5431714,
            5.8440505
          ],
          [
            -1.5427736,
            5.8427268
          ],
          [
            -1.5428147,
            5.842099
          ],
          [
            -1.5432263,
            5.8418397
          ],
          [
            -1.5440356,
            5.8414167
          ],
          [
            -1.5458738,
            5.8412256
          ],
          [
            -1.5467244,
            5.839629
          ],
          [
            -1.5477532,
            5.8376161
          ],
          [
            -1.5487203,
            5.836265
          ],
          [
            -1.5485969,
            5.8353575
          ],
          [
            -1.5480159,
            5.8343073
          ],
          [
            -1.5471839,
            5.8335425
          ],
          [
            -1.5469576,
            5.8325258
          ],
          [
            -1.5468479,
            5.8309088
          ],
          [
            -1.5475311,
            5.828865
          ],
          [
            -1.5484254,
            5.8283566
          ],
          [
            -1.5498795,
            5.8279609
          ],
          [
            -1.5521477,
            5.8271198
          ],
          [
            -1.5544328,
            5.8246168
          ],
          [
            -1.5548042,
            5.8230343
          ],
          [
            -1.5552981,
            5.8219152
          ],
          [
            -1.5573763,
            5.8203935
          ],
          [
            -1.558227,
            5.8200527
          ],
          [
            -1.559386,
            5.8195884
          ],
          [
            -1.5624451,
            5.8167975
          ],
          [
            -1.5636111,
            5.8150847
          ],
          [
            -1.5647017,
            5.8133993
          ],
          [
            -1.5655797,
            5.811591
          ],
          [
            -1.5657237,
            5.8105879
          ],
          [
            -1.5656551,
            5.8094961
          ],
          [
            -1.5656551,
            5.8087865
          ],
          [
            -1.5658334,
            5.8076401
          ],
          [
            -1.5664645,
            5.8067871
          ],
          [
            -1.5670543,
            5.8051699
          ],
          [
            -1.5679391,
            5.8047604
          ],
          [
            -1.5687348,
            5.8051562
          ],
          [
            -1.5701546,
            5.8049379
          ],
          [
            -1.5725346,
            5.8046103
          ],
          [
            -1.5744483,
            5.8044943
          ],
          [
            -1.5760944,
            5.8036823
          ],
          [
            -1.5778435,
            5.8024608
          ]
        ]
      },
      "properties": {
        "osm_id": 964945303,
        "name": "Pra River",
        "waterway": "river"
      }
    },
    {
      "type": "Feature",
      "geometry": {
        "type": "LineString",
        "coordinates": [
          [
            -1.5383153,
            5.6262546
          ],
          [
            -1.5377627,
            5.6256994
          ],
          [
            -1.537119,
            5.6257195
          ],
          [
            -1.5369715,
            5.6257221
          ],
          [
            -1.5367663,
            5.6254459
          ],
          [
            -1.5368521,
            5.6250068
          ],
          [
            -1.5367127,
            5.6244582
          ],
          [
            -1.5368629,
            5.6240525
          ],
          [
            -1.5376622,
            5.6232357
          ],
          [
            -1.5386372,
            5.6223148
          ]
        ]
      },
      "properties": {
        "osm_id": 1112371451,
        "name": "Pra River",
        "waterway": "river"
      }
    }
  ],
  "metadata": {
    "source": "OpenStreetMap via Overpass API",
    "source_url": "https://overpass-api.de/api/interpreter",
    "license": "ODbL \u2014 \u00a9 OpenStreetMap contributors",
    "license_url": "https://www.openstreetmap.org/copyright",
    "bbox": [
      5.0,
      -1.9,
      6.0,
      -1.3
    ],
    "segments": 10
  }
}