{
  "type": "FeatureCollection",
  "metadata": {
    "purpose": "Verified candidate sites for click-to-add on the map",
    "min_water_pixels": 60,
    "reading_radius_m": 500.0,
    "note": "Each candidate was snapped onto a persistent-water mask built from the clearest scenes and scored by the water pixels a reading there would actually get. A click on the map snaps to the nearest of these, so what is shown is a measured value, not a browser-side guess."
  },
  "features": [
    {
      "type": "Feature",
      "geometry": {
        "type": "Point",
        "coordinates": [
          -1.537936,
          5.868157
        ]
      },
      "properties": {
        "water_pixels": 220,
        "tile": "T30NXM",
        "moved_m": 892
      }
    },
    {
      "type": "Feature",
      "geometry": {
        "type": "Point",
        "coordinates": [
          -1.547363,
          5.832886
        ]
      },
      "properties": {
        "water_pixels": 296,
        "tile": "T30NXM",
        "moved_m": 882
      }
    },
    {
      "type": "Feature",
      "geometry": {
        "type": "Point",
        "coordinates": [
          -1.554931,
          5.822326
        ]
      },
      "properties": {
        "water_pixels": 201,
        "tile": "T30NXM",
        "moved_m": 895
      }
    },
    {
      "type": "Feature",
      "geometry": {
        "type": "Point",
        "coordinates": [
          -1.574217,
          5.775216
        ]
      },
      "properties": {
        "water_pixels": 228,
        "tile": "T30NXM",
        "moved_m": 873
      }
    },
    {
      "type": "Feature",
      "geometry": {
        "type": "Point",
        "coordinates": [
          -1.573778,
          5.761244
        ]
      },
      "properties": {
        "water_pixels": 262,
        "tile": "T30NXM",
        "moved_m": 381
      }
    },
    {
      "type": "Feature",
      "geometry": {
        "type": "Point",
        "coordinates": [
          -1.58128,
          5.749462
        ]
      },
      "properties": {
        "water_pixels": 209,
        "tile": "T30NXM",
        "moved_m": 674
      }
    },
    {
      "type": "Feature",
      "geometry": {
        "type": "Point",
        "coordinates": [
          -1.580027,
          5.726942
        ]
      },
      "properties": {
        "water_pixels": 184,
        "tile": "T30NXM",
        "moved_m": 535
      }
    },
    {
      "type": "Feature",
      "geometry": {
        "type": "Point",
        "coordinates": [
          -1.594111,
          5.69691
        ]
      },
      "properties": {
        "water_pixels": 204,
        "tile": "T30NXM",
        "moved_m": 393
      }
    },
    {
      "type": "Feature",
      "geometry": {
        "type": "Point",
        "coordinates": [
          -1.591818,
          5.690216
        ]
      },
      "properties": {
        "water_pixels": 201,
        "tile": "T30NXM",
        "moved_m": 775
      }
    },
    {
      "type": "Feature",
      "geometry": {
        "type": "Point",
        "coordinates": [
          -1.615932,
          5.520104
        ]
      },
      "properties": {
        "water_pixels": 267,
        "tile": "T30NXM",
        "moved_m": 893
      }
    },
    {
      "type": "Feature",
      "geometry": {
        "type": "Point",
        "coordinates": [
          -1.614363,
          5.480579
        ]
      },
      "properties": {
        "water_pixels": 186,
        "tile": "T30NXM",
        "moved_m": 892
      }
    },
    {
      "type": "Feature",
      "geometry": {
        "type": "Point",
        "coordinates": [
          -1.626413,
          5.431122
        ]
      },
      "properties": {
        "water_pixels": 254,
        "tile": "T30NXM",
        "moved_m": 853
      }
    },
    {
      "type": "Feature",
      "geometry": {
        "type": "Point",
        "coordinates": [
          -1.631352,
          5.413778
        ]
      },
      "properties": {
        "water_pixels": 283,
        "tile": "T30NXL",
        "moved_m": 791
      }
    },
    {
      "type": "Feature",
      "geometry": {
        "type": "Point",
        "coordinates": [
          -1.631181,
          5.373107
        ]
      },
      "properties": {
        "water_pixels": 305,
        "tile": "T30NXL",
        "moved_m": 881
      }
    },
    {
      "type": "Feature",
      "geometry": {
        "type": "Point",
        "coordinates": [
          -1.625565,
          5.364336
        ]
      },
      "properties": {
        "water_pixels": 401,
        "tile": "T30NXL",
        "moved_m": 509
      }
    },
    {
      "type": "Feature",
      "geometry": {
        "type": "Point",
        "coordinates": [
          -1.608113,
          5.328446
        ]
      },
      "properties": {
        "water_pixels": 307,
        "tile": "T30NXL",
        "moved_m": 892
      }
    },
    {
      "type": "Feature",
      "geometry": {
        "type": "Point",
        "coordinates": [
          -1.598617,
          5.310779
        ]
      },
      "properties": {
        "water_pixels": 331,
        "tile": "T30NXL",
        "moved_m": 698
      }
    },
    {
      "type": "Feature",
      "geometry": {
        "type": "Point",
        "coordinates": [
          -1.596154,
          5.288746
        ]
      },
      "properties": {
        "water_pixels": 327,
        "tile": "T30NXL",
        "moved_m": 620
      }
    },
    {
      "type": "Feature",
      "geometry": {
        "type": "Point",
        "coordinates": [
          -1.592802,
          5.267114
        ]
      },
      "properties": {
        "water_pixels": 303,
        "tile": "T30NXL",
        "moved_m": 726
      }
    },
    {
      "type": "Feature",
      "geometry": {
        "type": "Point",
        "coordinates": [
          -1.622646,
          5.169334
        ]
      },
      "properties": {
        "water_pixels": 208,
        "tile": "T30NXL",
        "moved_m": 897
      }
    },
    {
      "type": "Feature",
      "geometry": {
        "type": "Point",
        "coordinates": [
          -1.630593,
          5.164952
        ]
      },
      "properties": {
        "water_pixels": 279,
        "tile": "T30NXL",
        "moved_m": 270
      }
    },
    {
      "type": "Feature",
      "geometry": {
        "type": "Point",
        "coordinates": [
          -1.643228,
          5.161846
        ]
      },
      "properties": {
        "water_pixels": 215,
        "tile": "T30NXL",
        "moved_m": 614
      }
    },
    {
      "type": "Feature",
      "geometry": {
        "type": "Point",
        "coordinates": [
          -1.62889,
          5.128989
        ]
      },
      "properties": {
        "water_pixels": 241,
        "tile": "T30NXL",
        "moved_m": 897
      }
    },
    {
      "type": "Feature",
      "geometry": {
        "type": "Point",
        "coordinates": [
          -1.617694,
          5.119871
        ]
      },
      "properties": {
        "water_pixels": 214,
        "tile": "T30NXL",
        "moved_m": 899
      }
    }
  ]
}